STARLINK-2296
1 27998C 21024X   21325.11010870  .00001697  00000-0  11369-3 0  3256
2 27998  53.0509 132.7294 0001650  82.0646 171.7188 15.06391962    13
